{"fetched_at":"2026-03-29T16:36:15Z","count":15609,"tles":[{"name":"STARLINK-30854","line1":"1 58244U 23171Q   26087.71945049  .00003054  00000+0  12044-3 0  9994","line2":"2 58244  43.0019 177.8610 0001975 275.5434  84.5192 15.27585832132645","category":"Starlink"}]}