{
  "norad_id": 58244,
  "name": "STARLINK-30854",
  "history": [
    {
      "epoch": "2026-03-28T17:16:00.522336Z",
      "apogee_km": 484.3873312993528,
      "perigee_km": 481.6759346789677,
      "latitude_deg": -1.6511887965403692e-05,
      "longitude_deg": 92.72294737493743,
      "height_km": 482.67805325982346,
      "semi_major_axis_km": 6861.16863298916,
      "eccentricity": 0.00019759,
      "inclination_deg": 43.0019,
      "raan_deg": 177.861,
      "arg_perigee_deg": 275.5434,
      "mean_anomaly_deg": 84.5192,
      "mean_motion_rev_day": 15.27585832
    }
  ]
}